OBJECT_NAME,OBJECT_ID,EPOCH,MEAN_MOTION,ECCENTRICITY,INCLINATION,RA_OF_ASC_NODE,ARG_OF_PERICENTER,MEAN_ANOMALY,EPHEMERIS_TYPE,CLASSIFICATION_TYPE,NORAD_CAT_ID,ELEMENT_SET_NO,REV_AT_EPOCH,BSTAR,MEAN_MOTION_DOT,MEAN_MOTION_DDOT
BEIDOU-3S IGSO-1S (C31),2015-019A,2026-06-12T20:28:16.705632,1.00251377,.0038893,49.2042,295.5153,190.7644,173.7837,0,U,40549,999,4103,0,-.181E-5,0
GPS BIIF-10 (PRN 08),2015-033A,2026-06-13T05:34:27.623424,2.00556392,.0115057,53.9855,267.2497,30.2220,330.4618,0,U,40730,999,7991,0,-.19E-6,0
BEIDOU-3S M1S (C57),2015-037B,2026-06-13T05:39:19.373760,1.86254754,.0003517,54.8712,302.1701,61.4306,298.5865,0,U,40749,999,7405,0,-.69E-6,0
GSAT0206 (GALILEO 10),2015-045B,2026-06-13T08:25:46.280640,1.70473791,.00016978,54.9458,221.7104,337.4891,22.6033,0,U,40890,999,6697,0,.61E-6,0
BEIDOU-3S IGSO-2S (C56),2015-053A,2026-06-12T17:52:21.677376,1.00260455,.0065652,49.2285,258.8368,191.9654,173.7671,0,U,40938,999,3931,0,-.142E-5,0
GPS BIIF-11 (PRN 10),2015-062A,2026-06-13T06:55:29.493984,2.00566966,.01118213,56.9567,30.9614,231.1221,127.9314,0,U,41019,999,7775,0,-.62E-6,0
GSAT-15 (GAGAN/PRN 139),2015-065A,2026-06-13T14:35:15.380160,1.00274579,.00041235,0.0795,265.9133,158.0132,150.2996,0,U,41028,999,3876,0,-.247E-5,0
GSAT0209 (GALILEO 12),2015-079A,2026-06-11T18:13:38.595072,1.70473724,.00053697,55.8242,101.4109,341.4474,18.4942,0,U,41174,999,6468,0,.7E-7,0
GSAT0208 (GALILEO 11),2015-079B,2026-06-13T03:40:14.751264,1.70473585,.00048272,55.8236,101.3694,343.9776,15.9636,0,U,41175,999,6512,0,-.4E-7,0
GPS BIIF-12 (PRN 32),2016-007A,2026-06-10T21:16:03.868896,2.00551975,.00960688,55.5202,89.7095,247.3778,111.5924,0,U,41328,999,7571,0,-.12E-6,0
COSMOS 2514 (751),2016-008A,2026-06-13T01:29:01.376736,2.13102512,.00111456,65.0243,313.1481,197.7544,162.1934,0,U,41330,999,8053,0,-.5E-6,0
BEIDOU-2 IGSO-6 (C13),2016-021A,2026-06-13T00:17:42.034848,1.00259939,.00570771,60.2196,38.0819,231.5209,89.2880,0,U,41434,999,3743,0,-.156E-5,0
IRNSS-1G,2016-027A,2026-06-13T15:28:47.654400,1.00267829,.00075414,5.1893,97.5546,354.1809,171.9605,0,U,41469,999,3714,0,-.327E-5,0
GSAT0211 (GALILEO 14),2016-030A,2026-06-13T06:38:48.555168,1.70473898,.00029099,55.0962,221.8026,323.7251,36.3548,0,U,41549,999,6260,0,.61E-6,0
GSAT0210 (GALILEO 13),2016-030B,2026-06-12T08:39:54.847008,1.70473729,.00040525,55.0961,221.8258,240.3650,119.6902,0,U,41550,999,6258,0,.59E-6,0
BEIDOU-2 G7 (C03),2016-037A,2026-06-13T15:51:22.765824,1.00265568,.00068354,1.7099,69.2904,3.7360,177.2494,0,U,41586,999,685,0,-.343E-5,0
GSAT0212 (GALILEO 16),2016-069B,2026-06-12T11:49:31.821024,1.70473717,.00046589,55.4937,101.2113,357.7539,2.2023,0,U,41860,999,5957,0,0,0
GSAT0213 (GALILEO 17),2016-069C,2026-06-11T16:28:59.869920,1.70474158,.00050604,55.4953,101.2414,311.8034,48.1151,0,U,41861,999,5942,0,.7E-7,0
GSAT0214 (GALILEO 18),2016-069D,2026-06-12T10:04:11.984160,1.70473835,.00042871,55.4945,101.2137,319.1479,40.7786,0,U,41862,999,5956,0,.1E-7,0
SES-15 (WAAS/PRN 133),2017-026A,2026-06-13T14:15:00.972864,1.00267751,.00003855,0.0210,331.3109,61.1940,313.9944,0,U,42709,999,739,0,.71E-6,0
QZS-2 (QZSS/PRN 194),2017-028A,2026-06-09T12:56:43.810944,1.00285994,.07605811,39.4388,243.2674,269.1776,81.0235,0,U,42738,999,754,0,-.147E-5,0
COSMOS 2522 (752),2017-055A,2026-06-13T08:51:13.499136,2.13101904,.00108179,64.0787,192.0144,240.5111,119.4561,0,U,42939,999,6789,0,.114E-5,0
QZS-4 (QZSS/PRN 195),2017-062A,2026-06-13T08:38:10.353984,1.00251407,.07452562,40.1102,343.5314,271.6868,273.2941,0,U,42965,999,3176,0,-.329E-5,0
BEIDOU-3 M2 (C20),2017-069B,2026-06-12T18:37:35.969664,1.86230859,.00092204,56.6872,63.2666,350.0125,9.9939,0,U,43002,999,5851,0,-.55E-6,0
