{"fetched_at":"2026-06-14T03:48:42Z","count":16735,"tles":[{"name":"GPS BIIF-11","line1":"1 41019U 15062A   26164.28853581 -.00000062  00000+0  00000+0 0  9995","line2":"2 41019  56.9567  30.9614 0111821 231.1221 127.9314  2.00566966 77757","category":"GPS"},{"name":"GPS BIIF-10","line1":"1 40730U 15033A   26164.23226416 -.00000019  00000+0  00000+0 0  9990","line2":"2 40730  53.9855 267.2497 0115057  30.2220 330.4618  2.00556392 79919","category":"GPS"},{"name":"GSAT0212 (GALILEO 16)","line1":"1 41860U 16069B   26163.49272941  .00000000  00000+0  00000+0 0  9995","line2":"2 41860  55.4937 101.2113 0004658 357.7539   2.2023  1.70473717 59577","category":"GPS"},{"name":"BEIDOU-3S M1S","line1":"1 40749U 15037B   26164.23564090 -.00000069  00000+0  00000+0 0  9992","line2":"2 40749  54.8712 302.1701 0003517  61.4306 298.5865  1.86254754 74054","category":"GPS"},{"name":"BEIDOU-3S IGSO-2S","line1":"1 40938U 15053A   26163.74469534 -.00000142  00000+0  00000+0 0  9994","line2":"2 40938  49.2285 258.8368 0065652 191.9654 173.7671  1.00260455 39316","category":"GPS"},{"name":"GSAT0208 (GALILEO 11)","line1":"1 41175U 15079B   26164.15294851 -.00000004  00000+0  00000+0 0  9997","line2":"2 41175  55.8236 101.3694 0004827 343.9776  15.9636  1.70473585 65127","category":"GPS"},{"name":"GPS BIIF-12","line1":"1 41328U 16007A   26161.88615589 -.00000012  00000+0  00000+0 0  9990","line2":"2 41328  55.5202  89.7095 0096068 247.3778 111.5924  2.00551975 75711","category":"GPS"},{"name":"GSAT-15","line1":"1 41028U 15065A   26164.60781690 -.00000247  00000+0  00000+0 0  9990","line2":"2 41028   0.0795 265.9133 0004123 158.0132 150.2996  1.00274579 38768","category":"Other"},{"name":"GSAT0206 (GALILEO 10)","line1":"1 40890U 15045B   26164.35123010  .00000061  00000+0  00000+0 0  9995","line2":"2 40890  54.9458 221.7104 0001697 337.4891  22.6033  1.70473791 66976","category":"GPS"},{"name":"IRNSS-1G","line1":"1 41469U 16027A   26164.64499600 -.00000327  00000+0  00000+0 0  9998","line2":"2 41469   5.1893  97.5546 0007541 354.1809 171.9605  1.00267829 37144","category":"Other"},{"name":"BEIDOU-2 IGSO-6","line1":"1 41434U 16021A   26164.01229207 -.00000156  00000+0  00000+0 0  9999","line2":"2 41434  60.2196  38.0819 0057077 231.5209  89.2880  1.00259939 37439","category":"GPS"},{"name":"BEIDOU-2 G7","line1":"1 41586U 16037A   26164.66068016 -.00000343  00000+0  00000+0 0  9992","line2":"2 41586   1.7099  69.2904 0006835   3.7360 177.2494  1.00265568  6859","category":"GPS"},{"name":"COSMOS 2514 [GLONASS-M]","line1":"1 41330U 16008A   26164.06182149 -.00000050  00000+0  00000+0 0  9990","line2":"2 41330  65.0243 313.1481 0011145 197.7544 162.1934  2.13102512 80532","category":"GPS"},{"name":"COSMOS 2522 [GLONASS-M]","line1":"1 42939U 17055A   26164.36890624  .00000114  00000+0  00000+0 0  9996","line2":"2 42939  64.0787 192.0144 0010817 240.5111 119.4561  2.13101904 67891","category":"GPS"},{"name":"GSAT0211 (GALILEO 14)","line1":"1 41549U 16030A   26164.27695087  .00000061  00000+0  00000+0 0  9991","line2":"2 41549  55.0962 221.8026 0002909 323.7251  36.3548  1.70473898 62606","category":"GPS"},{"name":"BEIDOU-3 M2","line1":"1 43002U 17069B   26163.77611076 -.00000055  00000+0  00000+0 0  9994","line2":"2 43002  56.6872  63.2666 0009220 350.0125   9.9939  1.86230859 58513","category":"GPS"},{"name":"SES-15","line1":"1 42709U 17026A   26164.59376126  .00000071  00000+0  00000+0 0  9992","line2":"2 42709   0.0210 331.3109 0000385  61.1940 313.9944  1.00267751  7395","category":"Other"},{"name":"GSAT0213 (GALILEO 17)","line1":"1 41861U 16069C   26162.68680405  .00000007  00000+0  00000+0 0  9991","line2":"2 41861  55.4953 101.2414 0005060 311.8034  48.1151  1.70474158 59424","category":"GPS"},{"name":"GSAT0210 (GALILEO 13)","line1":"1 41550U 16030B   26163.36105147  .00000059  00000+0  00000+0 0  9992","line2":"2 41550  55.0961 221.8258 0004052 240.3650 119.6902  1.70473729 62581","category":"GPS"},{"name":"QZS-4 (MICHIBIKI-4)","line1":"1 42965U 17062A   26164.35984206 -.00000329  00000+0  00000+0 0  9991","line2":"2 42965  40.1102 343.5314 0745256 271.6868 273.2941  1.00251407 31761","category":"Other"},{"name":"BEIDOU-3S IGSO-1S","line1":"1 40549U 15019A   26163.85297113 -.00000181  00000+0  00000+0 0  9991","line2":"2 40549  49.2042 295.5153 0038893 190.7644 173.7837  1.00251377 41037","category":"GPS"},{"name":"QZS-2 (MICHIBIKI-2)","line1":"1 42738U 17028A   26160.53939596 -.00000147  00000+0  00000+0 0  9997","line2":"2 42738  39.4388 243.2674 0760581 269.1776  81.0235  1.00285994  7547","category":"Other"},{"name":"GSAT0209 (GALILEO 12)","line1":"1 41174U 15079A   26162.75947448  .00000007  00000+0  00000+0 0  9999","line2":"2 41174  55.8242 101.4109 0005369 341.4474  18.4942  1.70473724 64688","category":"GPS"},{"name":"GSAT0214 (GALILEO 18)","line1":"1 41862U 16069D   26163.41958315  .00000001  00000+0  00000+0 0  9996","line2":"2 41862  55.4945 101.2137 0004287 319.1479  40.7786  1.70473835 59560","category":"GPS"}]}